GNOMES-1                
1 46266U 20059B   26068.53916665  .00004080  00000+0  33422-3 0  9991
2 46266  97.8057 278.7760 0005451 357.8604   2.2595 14.99848479300657
STARLINK-33961          
1 64047U 25102AB  26068.50325301 -.00023035  00000+0 -19275-2 0  9992
2 64047  70.0017 114.9515 0002797 251.6237 108.4618 14.98362597 45804
